{
  "type": "FeatureCollection",
  "features": [
    {
      "type": "Feature",
      "properties": {
        "norad_id": 31307,
        "name": "GALAXY 17 (G-17)",
        "group": "intelsat",
        "lat": -2.4107209086794437,
        "lon": -23.08551318377898,
        "alt_km": 35786.557335865866,
        "timestamp": "2025-12-11T22:43:46.939485+00:00",
        "meta_object_name": "GALAXY 17 (G-17)",
        "meta_object_id": "2007-016B",
        "meta_epoch": "2025-12-11T13:06:24.888096",
        "meta_mean_motion": 1.00272496,
        "meta_eccentricity": 0.00059137,
        "meta_inclination": 2.4973,
        "meta_ra_of_asc_node": 82.2972,
        "meta_arg_of_pericenter": 163.7407,
        "meta_mean_anomaly": 306.0857,
        "meta_ephemeris_type": 0,
        "meta_classification_type": "U",
        "meta_norad_cat_id": 31307,
        "meta_element_set_no": 999,
        "meta_rev_at_epoch": 6792,
        "meta_bstar": 0,
        "meta_mean_motion_dot": -1.99e-06,
        "meta_mean_motion_ddot": 0,
        "tle_line1": "1 31307U 07016B   25345.54612139 -.00000199  00000+0  00000+0 0  9996",
        "tle_line2": "2 31307   2.4973  82.2972 0005913 163.7407 306.0857  1.00272496 67921"
      },
      "geometry": {
        "type": "Point",
        "coordinates": [
          -23.08551318377898,
          -2.4107209086794437
        ]
      }
    },
    {
      "type": "Feature",
      "properties": {
        "norad_id": 31862,
        "name": "DIRECTV 10",
        "group": "intelsat",
        "lat": -0.0005041559549584993,
        "lon": -40.93786599958553,
        "alt_km": 35786.18749686402,
        "timestamp": "2025-12-11T22:43:46.939498+00:00",
        "meta_object_name": "DIRECTV 10",
        "meta_object_id": "2007-032A",
        "meta_epoch": "2025-12-11T13:01:17.877792",
        "meta_mean_motion": 1.00271451,
        "meta_eccentricity": 3.226e-05,
        "meta_inclination": 0.02,
        "meta_ra_of_asc_node": 159.3948,
        "meta_arg_of_pericenter": 69.2336,
        "meta_mean_anomaly": 304.4155,
        "meta_ephemeris_type": 0,
        "meta_classification_type": "U",
        "meta_norad_cat_id": 31862,
        "meta_element_set_no": 999,
        "meta_rev_at_epoch": 4371,
        "meta_bstar": 0,
        "meta_mean_motion_dot": -9.6e-07,
        "meta_mean_motion_ddot": 0,
        "tle_line1": "1 31862U 07032A   25345.54256803 -.00000096  00000+0  00000+0 0  9998",
        "tle_line2": "2 31862   0.0200 159.3948 0000322  69.2336 304.4155  1.00271451 43717"
      },
      "geometry": {
        "type": "Point",
        "coordinates": [
          -40.93786599958553,
          -0.0005041559549584993
        ]
      }
    },
    {
      "type": "Feature",
      "properties": {
        "norad_id": 32253,
        "name": "INTELSAT 11 (IS-11)",
        "group": "intelsat",
        "lat": -1.5582309886529262,
        "lon": -68.95334263619347,
        "alt_km": 36105.531224078986,
        "timestamp": "2025-12-11T22:43:46.939510+00:00",
        "meta_object_name": "INTELSAT 11 (IS-11)",
        "meta_object_id": "2007-044B",
        "meta_epoch": "2025-12-11T12:53:48.594336",
        "meta_mean_motion": 0.990482,
        "meta_eccentricity": 0.00089643,
        "meta_inclination": 3.0774,
        "meta_ra_of_asc_node": 80.9892,
        "meta_arg_of_pericenter": 165.4381,
        "meta_mean_anomaly": 258.4913,
        "meta_ephemeris_type": 0,
        "meta_classification_type": "U",
        "meta_norad_cat_id": 32253,
        "meta_element_set_no": 999,
        "meta_rev_at_epoch": 6659,
        "meta_bstar": 0,
        "meta_mean_motion_dot": 8.1e-07,
        "meta_mean_motion_ddot": 0,
        "tle_line1": "1 32253U 07044B   25345.53736799  .00000081  00000+0  00000+0 0  9995",
        "tle_line2": "2 32253   3.0774  80.9892 0008964 165.4381 258.4913  0.99048200 66599"
      },
      "geometry": {
        "type": "Point",
        "coordinates": [
          -68.95334263619347,
          -1.5582309886529262
        ]
      }
    },
    {
      "type": "Feature",
      "properties": {
        "norad_id": 32388,
        "name": "HORIZONS-2",
        "group": "intelsat",
        "lat": -2.109876622763101,
        "lon": -11.897508647564715,
        "alt_km": 35781.89634321828,
        "timestamp": "2025-12-11T22:43:46.939522+00:00",
        "meta_object_name": "HORIZONS-2",
        "meta_object_id": "2007-063B",
        "meta_epoch": "2025-12-11T13:09:32.089248",
        "meta_mean_motion": 1.00270097,
        "meta_eccentricity": 0.00049451,
        "meta_inclination": 2.1187,
        "meta_ra_of_asc_node": 82.9727,
        "meta_arg_of_pericenter": 188.9575,
        "meta_mean_anomaly": 292.1698,
        "meta_ephemeris_type": 0,
        "meta_classification_type": "U",
        "meta_norad_cat_id": 32388,
        "meta_element_set_no": 999,
        "meta_rev_at_epoch": 6593,
        "meta_bstar": 0,
        "meta_mean_motion_dot": -2.46e-06,
        "meta_mean_motion_ddot": 0,
        "tle_line1": "1 32388U 07063B   25345.54828807 -.00000246  00000+0  00000+0 0  9992",
        "tle_line2": "2 32388   2.1187  82.9727 0004945 188.9575 292.1698  1.00270097 65931"
      },
      "geometry": {
        "type": "Point",
        "coordinates": [
          -11.897508647564715,
          -2.109876622763101
        ]
      }
    },
    {
      "type": "Feature",
      "properties": {
        "norad_id": 32729,
        "name": "DIRECTV 11",
        "group": "intelsat",
        "lat": 0.02192394960561403,
        "lon": -37.35058668380681,
        "alt_km": 35788.547398688395,
        "timestamp": "2025-12-11T22:43:46.939534+00:00",
        "meta_object_name": "DIRECTV 11",
        "meta_object_id": "2008-013A",
        "meta_epoch": "2025-12-11T13:02:25.269792",
        "meta_mean_motion": 1.00269731,
        "meta_eccentricity": 5.401e-05,
        "meta_inclination": 0.0399,
        "meta_ra_of_asc_node": 173.2393,
        "meta_arg_of_pericenter": 3.3068,
        "meta_mean_anomaly": 0.3694,
        "meta_ephemeris_type": 0,
        "meta_classification_type": "U",
        "meta_norad_cat_id": 32729,
        "meta_element_set_no": 999,
        "meta_rev_at_epoch": 4371,
        "meta_bstar": 0,
        "meta_mean_motion_dot": -1.18e-06,
        "meta_mean_motion_ddot": 0,
        "tle_line1": "1 32729U 08013A   25345.54334803 -.00000118  00000+0  00000+0 0  9993",
        "tle_line2": "2 32729   0.0399 173.2393 0000540   3.3068   0.3694  1.00269731 43719"
      },
      "geometry": {
        "type": "Point",
        "coordinates": [
          -37.35058668380681,
          0.02192394960561403
        ]
      }
    },
    {
      "type": "Feature",
      "properties": {
        "norad_id": 32951,
        "name": "GALAXY 18 (G-18)",
        "group": "intelsat",
        "lat": -0.015488907164885853,
        "lon": -61.1447988497837,
        "alt_km": 35775.905834204415,
        "timestamp": "2025-12-11T22:43:46.939546+00:00",
        "meta_object_name": "GALAXY 18 (G-18)",
        "meta_object_id": "2008-024A",
        "meta_epoch": "2025-12-11T12:55:33.426912",
        "meta_mean_motion": 1.00270947,
        "meta_eccentricity": 0.00030529,
        "meta_inclination": 0.0188,
        "meta_ra_of_asc_node": 318.3311,
        "meta_arg_of_pericenter": 304.0783,
        "meta_mean_anomaly": 248.972,
        "meta_ephemeris_type": 0,
        "meta_classification_type": "U",
        "meta_norad_cat_id": 32951,
        "meta_element_set_no": 999,
        "meta_rev_at_epoch": 4397,
        "meta_bstar": 0,
        "meta_mean_motion_dot": 3.2e-07,
        "meta_mean_motion_ddot": 0,
        "tle_line1": "1 32951U 08024A   25345.53858133  .00000032  00000+0  00000+0 0  9992",
        "tle_line2": "2 32951   0.0188 318.3311 0003052 304.0783 248.9720  1.00270947 43979"
      },
      "geometry": {
        "type": "Point",
        "coordinates": [
          -61.1447988497837,
          -0.015488907164885853
        ]
      }
    },
    {
      "type": "Feature",
      "properties": {
        "norad_id": 33153,
        "name": "INTELSAT 25 (IS-25)",
        "group": "intelsat",
        "lat": -1.7459683426589079,
        "lon": 30.418480302336658,
        "alt_km": 35800.2416081312,
        "timestamp": "2025-12-11T22:43:46.939558+00:00",
        "meta_object_name": "INTELSAT 25 (IS-25)",
        "meta_object_id": "2008-034A",
        "meta_epoch": "2025-12-11T11:38:55.765824",
        "meta_mean_motion": 1.00271696,
        "meta_eccentricity": 0.0005161,
        "meta_inclination": 2.2248,
        "meta_ra_of_asc_node": 82.6598,
        "meta_arg_of_pericenter": 178.3273,
        "meta_mean_anomaly": 322.6991,
        "meta_ephemeris_type": 0,
        "meta_classification_type": "U",
        "meta_norad_cat_id": 33153,
        "meta_element_set_no": 999,
        "meta_rev_at_epoch": 6381,
        "meta_bstar": 0,
        "meta_mean_motion_dot": -2.17e-06,
        "meta_mean_motion_ddot": 0,
        "tle_line1": "1 33153U 08034A   25345.48536766 -.00000217  00000+0  00000+0 0  9993",
        "tle_line2": "2 33153   2.2248  82.6598 0005161 178.3273 322.6991  1.00271696 63819"
      },
      "geometry": {
        "type": "Point",
        "coordinates": [
          30.418480302336658,
          -1.7459683426589079
        ]
      }
    }
  ]
}